{
  "type": "FeatureCollection",
  "features": [
    {
      "type": "Feature",
      "properties": {
        "norad_id": 37238,
        "name": "INTELSAT 17 (IS-17)",
        "group": "intelsat",
        "lat": 0.022469628270574266,
        "lon": 92.4234724277325,
        "alt_km": 35795.898047593655,
        "timestamp": "2025-12-07T20:38:13.745197+00:00",
        "meta_object_name": "INTELSAT 17 (IS-17)",
        "meta_object_id": "2010-065B",
        "meta_epoch": "2025-12-07T05:23:09.869856",
        "meta_mean_motion": 1.00271704,
        "meta_eccentricity": 0.00024106,
        "meta_inclination": 0.0075,
        "meta_ra_of_asc_node": 313.9965,
        "meta_arg_of_pericenter": 302.5834,
        "meta_mean_anomaly": 326.4653,
        "meta_ephemeris_type": 0,
        "meta_classification_type": "U",
        "meta_norad_cat_id": 37238,
        "meta_element_set_no": 999,
        "meta_rev_at_epoch": 5132,
        "meta_bstar": 0,
        "meta_mean_motion_dot": 3e-08,
        "meta_mean_motion_ddot": 0,
        "tle_line1": "1 37238U 10065B   25341.22441979  .00000003  00000+0  00000+0 0  9999",
        "tle_line2": "2 37238   0.0075 313.9965 0002410 302.5834 326.4653  1.00271704 51327"
      },
      "geometry": {
        "type": "Point",
        "coordinates": [
          92.4234724277325,
          0.022469628270574266
        ]
      }
    },
    {
      "type": "Feature",
      "properties": {
        "norad_id": 37392,
        "name": "INTELSAT 28 (IS-28)",
        "group": "intelsat",
        "lat": -1.3061943639058091,
        "lon": -5.231775619382181,
        "alt_km": 35787.26141719064,
        "timestamp": "2025-12-07T20:38:13.745209+00:00",
        "meta_object_name": "INTELSAT 28 (IS-28)",
        "meta_object_id": "2011-016A",
        "meta_epoch": "2025-12-07T06:38:10.184928",
        "meta_mean_motion": 1.00270466,
        "meta_eccentricity": 0.00041615,
        "meta_inclination": 1.31,
        "meta_ra_of_asc_node": 85.1225,
        "meta_arg_of_pericenter": 177.7306,
        "meta_mean_anomaly": 241.2847,
        "meta_ephemeris_type": 0,
        "meta_classification_type": "U",
        "meta_norad_cat_id": 37392,
        "meta_element_set_no": 999,
        "meta_rev_at_epoch": 5136,
        "meta_bstar": 0,
        "meta_mean_motion_dot": -2.21e-06,
        "meta_mean_motion_ddot": 0,
        "tle_line1": "1 37392U 11016A   25341.27650677 -.00000221  00000+0  00000+0 0  9992",
        "tle_line2": "2 37392   1.3100  85.1225 0004161 177.7306 241.2847  1.00270466 51366"
      },
      "geometry": {
        "type": "Point",
        "coordinates": [
          -5.231775619382181,
          -1.3061943639058091
        ]
      }
    },
    {
      "type": "Feature",
      "properties": {
        "norad_id": 37834,
        "name": "INTELSAT 18 (IS-18)",
        "group": "intelsat",
        "lat": -0.031764253764263485,
        "lon": -153.59109319458932,
        "alt_km": 35781.06345638522,
        "timestamp": "2025-12-07T20:38:13.745221+00:00",
        "meta_object_name": "INTELSAT 18 (IS-18)",
        "meta_object_id": "2011-056A",
        "meta_epoch": "2025-12-07T04:13:09.075936",
        "meta_mean_motion": 1.00271911,
        "meta_eccentricity": 0.00021384,
        "meta_inclination": 0.0167,
        "meta_ra_of_asc_node": 328.3083,
        "meta_arg_of_pericenter": 295.1268,
        "meta_mean_anomaly": 56.0568,
        "meta_ephemeris_type": 0,
        "meta_classification_type": "U",
        "meta_norad_cat_id": 37834,
        "meta_element_set_no": 999,
        "meta_rev_at_epoch": 5188,
        "meta_bstar": 0,
        "meta_mean_motion_dot": 5.8e-07,
        "meta_mean_motion_ddot": 0,
        "tle_line1": "1 37834U 11056A   25341.17579949  .00000058  00000+0  00000+0 0  9995",
        "tle_line2": "2 37834   0.0167 328.3083 0002138 295.1268  56.0568  1.00271911 51889"
      },
      "geometry": {
        "type": "Point",
        "coordinates": [
          -153.59109319458932,
          -0.031764253764263485
        ]
      }
    },
    {
      "type": "Feature",
      "properties": {
        "norad_id": 38098,
        "name": "INTELSAT 22 (IS-22)",
        "group": "intelsat",
        "lat": 0.0254079849629691,
        "lon": 98.53031851427673,
        "alt_km": 35793.49167289702,
        "timestamp": "2025-12-07T20:38:13.745233+00:00",
        "meta_object_name": "INTELSAT 22 (IS-22)",
        "meta_object_id": "2012-011A",
        "meta_epoch": "2025-12-07T03:27:38.581920",
        "meta_mean_motion": 1.0027115,
        "meta_eccentricity": 0.00017495,
        "meta_inclination": 0.0103,
        "meta_ra_of_asc_node": 33.7815,
        "meta_arg_of_pericenter": 232.7098,
        "meta_mean_anomaly": 293.6994,
        "meta_ephemeris_type": 0,
        "meta_classification_type": "U",
        "meta_norad_cat_id": 38098,
        "meta_element_set_no": 999,
        "meta_rev_at_epoch": 526,
        "meta_bstar": 0,
        "meta_mean_motion_dot": -5.4e-07,
        "meta_mean_motion_ddot": 0,
        "tle_line1": "1 38098U 12011A   25341.14419655 -.00000054  00000+0  00000+0 0  9991",
        "tle_line2": "2 38098   0.0103  33.7815 0001749 232.7098 293.6994  1.00271150  5265"
      },
      "geometry": {
        "type": "Point",
        "coordinates": [
          98.53031851427673,
          0.0254079849629691
        ]
      }
    },
    {
      "type": "Feature",
      "properties": {
        "norad_id": 38356,
        "name": "INTELSAT 19 (IS-19)",
        "group": "intelsat",
        "lat": -0.0073498832959753395,
        "lon": -167.6113880156135,
        "alt_km": 35781.633042496986,
        "timestamp": "2025-12-07T20:38:13.745245+00:00",
        "meta_object_name": "INTELSAT 19 (IS-19)",
        "meta_object_id": "2012-030A",
        "meta_epoch": "2025-12-07T05:51:52.119936",
        "meta_mean_motion": 1.00270369,
        "meta_eccentricity": 0.00035304,
        "meta_inclination": 0.0106,
        "meta_ra_of_asc_node": 13.2827,
        "meta_arg_of_pericenter": 250.2868,
        "meta_mean_anomaly": 66.6704,
        "meta_ephemeris_type": 0,
        "meta_classification_type": "U",
        "meta_norad_cat_id": 38356,
        "meta_element_set_no": 999,
        "meta_rev_at_epoch": 4852,
        "meta_bstar": 0,
        "meta_mean_motion_dot": -5.2e-07,
        "meta_mean_motion_ddot": 0,
        "tle_line1": "1 38356U 12030A   25341.24435324 -.00000052  00000+0  00000+0 0  9999",
        "tle_line2": "2 38356   0.0106  13.2827 0003530 250.2868  66.6704  1.00270369 48525"
      },
      "geometry": {
        "type": "Point",
        "coordinates": [
          -167.6113880156135,
          -0.0073498832959753395
        ]
      }
    },
    {
      "type": "Feature",
      "properties": {
        "norad_id": 38740,
        "name": "INTELSAT 20 (IS-20)",
        "group": "intelsat",
        "lat": 0.003744515892564379,
        "lon": 94.90542689824414,
        "alt_km": 35785.81962612254,
        "timestamp": "2025-12-07T20:38:13.745257+00:00",
        "meta_object_name": "INTELSAT 20 (IS-20)",
        "meta_object_id": "2012-043A",
        "meta_epoch": "2025-12-07T02:03:38.498400",
        "meta_mean_motion": 1.00270865,
        "meta_eccentricity": 0.00029761,
        "meta_inclination": 0.0012,
        "meta_ra_of_asc_node": 67.5911,
        "meta_arg_of_pericenter": 114.906,
        "meta_mean_anomaly": 353.0414,
        "meta_ephemeris_type": 0,
        "meta_classification_type": "U",
        "meta_norad_cat_id": 38740,
        "meta_element_set_no": 999,
        "meta_rev_at_epoch": 4882,
        "meta_bstar": 0,
        "meta_mean_motion_dot": -1.9e-07,
        "meta_mean_motion_ddot": 0,
        "tle_line1": "1 38740U 12043A   25341.08586225 -.00000019  00000+0  00000+0 0  9992",
        "tle_line2": "2 38740   0.0012  67.5911 0002976 114.9060 353.0414  1.00270865 48822"
      },
      "geometry": {
        "type": "Point",
        "coordinates": [
          94.90542689824414,
          0.003744515892564379
        ]
      }
    },
    {
      "type": "Feature",
      "properties": {
        "norad_id": 38749,
        "name": "INTELSAT 21 (IS-21)",
        "group": "intelsat",
        "lat": -0.013279149823001156,
        "lon": -31.543097360578084,
        "alt_km": 35784.07995716017,
        "timestamp": "2025-12-07T20:38:13.745269+00:00",
        "meta_object_name": "INTELSAT 21 (IS-21)",
        "meta_object_id": "2012-045A",
        "meta_epoch": "2025-12-07T06:30:40.902336",
        "meta_mean_motion": 1.00271038,
        "meta_eccentricity": 0.00022479,
        "meta_inclination": 0.0164,
        "meta_ra_of_asc_node": 353.1669,
        "meta_arg_of_pericenter": 259.0702,
        "meta_mean_anomaly": 223.7362,
        "meta_ephemeris_type": 0,
        "meta_classification_type": "U",
        "meta_norad_cat_id": 38749,
        "meta_element_set_no": 999,
        "meta_rev_at_epoch": 4860,
        "meta_bstar": 0,
        "meta_mean_motion_dot": -2.8e-06,
        "meta_mean_motion_ddot": 0,
        "tle_line1": "1 38749U 12045A   25341.27130674 -.00000280  00000+0  00000+0 0  9997",
        "tle_line2": "2 38749   0.0164 353.1669 0002247 259.0702 223.7362  1.00271038 48602"
      },
      "geometry": {
        "type": "Point",
        "coordinates": [
          -31.543097360578084,
          -0.013279149823001156
        ]
      }
    }
  ]
}